NORAD_CAT_ID,OBJECT_NAME,OBJECT_TYPE,EPOCH,MEAN_MOTION,ECCENTRICITY,INCLINATION,RA_OF_ASC_NODE,ARG_OF_PERICENTER,MEAN_ANOMALY,BSTAR,MEAN_MOTION_DOT,MEAN_MOTION_DDOT,TLE_LINE0,TLE_LINE1,TLE_LINE2,SEMIMAJOR_AXIS,PERIOD,APOGEE,PERIGEE,DECAYED
52648.0,STARLINK-3854,PAYLOAD,2024-07-24 22:30:26,15.0884465,0.0001205,53.2156,40.0879,88.1589,271.9541,0.00064648,0.00010017,0.0,0 STARLINK-3854,1 52648U 22052BC  24206.93781079  .00010017  00000-0  64648-3 0  9994,2 52648  53.2156  40.0879 0001205  88.1589 271.9541 15.08844650121648,6917.866,95.437,540.565,538.898,0.0
52648.0,STARLINK-3854,PAYLOAD,2024-07-25 12:48:55,15.08846047,0.0001461,53.2148,37.411,88.0063,272.1096,0.00042128,6.424e-05,0.0,0 STARLINK-3854,1 52648U 22052BC  24207.53397141  .00006424  00000-0  42128-3 0  9990,2 52648  53.2148  37.4110 0001461  88.0063 272.1096 15.08846047122110,6917.862,95.437,540.738,538.716,0.0
52648.0,STARLINK-3854,PAYLOAD,2024-07-25 19:10:27,15.08846029,0.0001313,53.2151,36.2223,87.2447,272.8696,0.00035526,5.371e-05,0.0,0 STARLINK-3854,1 52648U 22052BC  24207.79893074  .00005371  00000-0  35526-3 0  9998,2 52648  53.2151  36.2223 0001313  87.2447 272.8696 15.08846029121773,6917.862,95.437,540.635,538.819,0.0
52648.0,STARLINK-3854,PAYLOAD,2024-07-26 19:01:15,15.08831083,5.47e-05,53.2198,31.7644,287.1111,72.9821,0.00010538,1.39e-05,0.0,0 STARLINK-3854,1 52648U 22052BC  24208.79254113  .00001390  00000-0  10538-3 0  9997,2 52648  53.2198  31.7644 0000547 287.1111  72.9821 15.08831083122301,6917.908,95.438,540.151,539.394,0.0
52648.0,STARLINK-3854,PAYLOAD,2024-07-26 22:12:02,15.08828424,9.25e-05,53.2155,31.1678,98.7139,261.3958,-4.4411e-05,-9.94e-06,0.0,0 STARLINK-3854,1 52648U 22052BC  24208.92502319 -.00000994  00000-0 -44411-4 0  9995,2 52648  53.2155  31.1678 0000925  98.7139 261.3958 15.08828424121940,6917.916,95.438,540.421,539.141,0.0
52648.0,STARLINK-3854,PAYLOAD,2024-07-27 20:27:25,15.08842294,0.0001029,53.2147,27.0045,90.5301,269.5809,0.00023915,3.521e-05,0.0,0 STARLINK-3854,1 52648U 22052BC  24209.85237940  .00003521  00000-0  23915-3 0  9995,2 52648  53.2147  27.0045 0001029  90.5301 269.5809 15.08842294122082,6917.873,95.437,540.45,539.027,0.0
52648.0,STARLINK-3854,PAYLOAD,2024-07-28 04:24:20,15.08857077,9.01e-05,53.2161,25.5186,97.5922,262.5173,0.00042785,6.531e-05,0.0,0 STARLINK-3854,1 52648U 22052BC  24210.18356899  .00006531  00000-0  42785-3 0  9998,2 52648  53.2161  25.5186 0000901  97.5922 262.5173 15.08857077122511,6917.828,95.436,540.316,539.07,0.0
52648.0,STARLINK-3854,PAYLOAD,2024-07-28 12:21:16,15.08839289,0.0001232,53.2174,24.0309,75.7344,284.3785,6.7878e-05,7.93e-06,0.0,0 STARLINK-3854,1 52648U 22052BC  24210.51477942  .00000793  00000-0  67878-4 0  9993,2 52648  53.2174  24.0309 0001232  75.7344 284.3785 15.08839289122561,6917.883,95.438,540.6,538.895,0.0
52648.0,STARLINK-3854,PAYLOAD,2024-07-28 18:42:49,15.08839619,8.44e-05,53.2183,22.842,86.5502,273.5587,5.5345e-05,5.93e-06,0.0,0 STARLINK-3854,1 52648U 22052BC  24210.77973856  .00000593  00000-0  55345-4 0  9990,2 52648  53.2183  22.8420 0000844  86.5502 273.5587 15.08839619122225,6917.882,95.438,540.33,539.163,0.0
52648.0,STARLINK-3854,PAYLOAD,2024-07-29 10:36:40,15.08848668,0.0001238,53.2173,19.8723,69.6055,290.507,0.00010389,1.366e-05,0.0,0 STARLINK-3854,1 52648U 22052BC  24211.44213512  .00001366  00000-0  10389-3 0  9998,2 52648  53.2173  19.8723 0001238  69.6055 290.5070 15.08848668122320,6917.854,95.437,540.575,538.862,0.0
52648.0,STARLINK-3854,PAYLOAD,2024-07-29 18:33:35,15.08842201,6.46e-05,53.2175,18.3841,84.7568,275.3498,-9.9359e-05,-1.869e-05,0.0,0 STARLINK-3854,1 52648U 22052BC  24211.77333300 -.00001869  00000-0 -99359-4 0  9997,2 52648  53.2175  18.3841 0000646  84.7568 275.3498 15.08842201122755,6917.874,95.437,540.186,539.292,0.0
52648.0,STARLINK-3854,PAYLOAD,2024-07-30 04:05:54,15.08858642,0.0001528,53.2177,16.5959,68.0289,292.0866,0.00012537,1.709e-05,0.0,0 STARLINK-3854,1 52648U 22052BC  24212.17076733  .00001709  00000-0  12537-3 0  9999,2 52648  53.2177  16.5959 0001528  68.0289 292.0866 15.08858642122810,6917.823,95.436,540.745,538.631,0.0
52648.0,STARLINK-3854,PAYLOAD,2024-07-30 10:27:27,15.08837229,0.0001174,53.2182,15.4085,80.7037,279.4088,8.3774e-05,1.046e-05,0.0,0 STARLINK-3854,1 52648U 22052BC  24212.43573614  .00001046  00000-0  83774-4 0  9994,2 52648  53.2182  15.4085 0001174  80.7037 279.4088 15.08837229122850,6917.889,95.438,540.566,538.942,0.0
52648.0,STARLINK-3854,PAYLOAD,2024-07-31 03:56:41,15.08844282,0.0001285,53.2172,12.1393,78.8709,281.2428,0.00014731,2.058e-05,0.0,0 STARLINK-3854,1 52648U 22052BC  24213.16437388  .00002058  00000-0  14731-3 0  9992,2 52648  53.2172  12.1393 0001285  78.8709 281.2428 15.08844282122588,6917.867,95.437,540.621,538.843,0.0
52648.0,STARLINK-3854,PAYLOAD,2024-07-31 18:15:10,15.08838311,8.27e-05,53.2163,9.4591,91.3482,268.7605,5.7226e-05,6.23e-06,0.0,0 STARLINK-3854,1 52648U 22052BC  24213.76053563  .00000623  00000-0  57226-4 0  9990,2 52648  53.2163   9.4591 0000827  91.3482 268.7605 15.08838311123052,6917.886,95.438,540.323,539.178,0.0
52648.0,STARLINK-3854,PAYLOAD,2024-08-01 03:47:28,15.08853936,8.73e-05,53.2169,7.676,83.2105,276.8986,0.00037722,5.723e-05,0.0,0 STARLINK-3854,1 52648U 22052BC  24214.15797074  .00005723  00000-0  37722-3 0  9990,2 52648  53.2169   7.6760 0000873  83.2105 276.8986 15.08853936123118,6917.838,95.437,540.307,539.099,0.0
52648.0,STARLINK-3854,PAYLOAD,2024-08-01 10:09:01,15.08846014,0.0001064,53.2148,6.4882,89.8486,270.2628,0.00033797,5.096e-05,0.0,0 STARLINK-3854,1 52648U 22052BC  24214.42293545  .00005096  00000-0  33797-3 0  9995,2 52648  53.2148   6.4882 0001064  89.8486 270.2628 15.08846014122775,6917.862,95.437,540.463,538.991,0.0
52648.0,STARLINK-3854,PAYLOAD,2024-08-01 19:41:19,15.08856041,9.24e-05,53.2168,4.6999,105.7594,254.35,0.00040789,6.213e-05,0.0,0 STARLINK-3854,1 52648U 22052BC  24214.82036948  .00006213  00000-0  40789-3 0  9992,2 52648  53.2168   4.6999 0000924 105.7594 254.3500 15.08856041122838,6917.831,95.437,540.336,539.057,0.0
52648.0,STARLINK-3854,PAYLOAD,2024-08-02 13:10:35,15.08826376,0.0001068,53.2172,1.4314,90.7129,269.3986,-0.00020989,-3.625e-05,0.0,0 STARLINK-3854,1 52648U 22052BC  24215.54902085 -.00003625  00000-0 -20989-3 0  9992,2 52648  53.2172   1.4314 0001068  90.7129 269.3986 15.08826376123323,6917.922,95.438,540.526,539.048,0.0
52648.0,STARLINK-3854,PAYLOAD,2024-08-02 14:45:58,15.08828172,0.0001447,53.2176,1.131,112.5186,247.5959,-0.00023926,-4.092e-05,0.0,0 STARLINK-3854,1 52648U 22052BC  24215.61525865 -.00004092  00000-0 -23926-3 0  9990,2 52648  53.2176   1.1310 0001447 112.5186 247.5959 15.08828172122959,6917.917,95.438,540.783,538.781,0.0
52648.0,STARLINK-3854,PAYLOAD,2024-08-02 19:32:07,15.08832931,0.0001247,53.218,0.24,90.8846,269.2289,0.00017491,2.496e-05,0.0,0 STARLINK-3854,1 52648U 22052BC  24215.81397983  .00002496  00000-0  17491-3 0  9994,2 52648  53.2180   0.2400 0001247  90.8846 269.2289 15.08832931122981,6917.902,95.438,540.63,538.904,0.0
52648.0,STARLINK-3854,PAYLOAD,2024-08-03 14:36:45,15.08849063,0.0001319,53.2185,356.6714,89.7279,270.3864,0.0011495,0.00018058,0.0,0 STARLINK-3854,1 52648U 22052BC  24216.60886450  .00018058  00000-0  11495-2 0  9992,2 52648  53.2185 356.6714 0001319  89.7279 270.3864 15.08849063123100,6917.853,95.437,540.63,538.805,0.0
52648.0,STARLINK-3854,PAYLOAD,2024-08-03 16:12:08,15.08853215,0.0001294,53.2185,356.3745,86.992,273.1221,0.0012373,0.00019466,0.0,0 STARLINK-3854,1 52648U 22052BC  24216.67510393  .00019466  00000-0  12373-2 0  9999,2 52648  53.2185 356.3745 0001294  86.9920 273.1221 15.08853215123118,6917.84,95.437,540.6,538.81,0.0
52648.0,STARLINK-3854,PAYLOAD,2024-08-04 12:52:09,15.08848161,0.0001405,53.2187,352.5093,114.6242,245.4896,0.00098955,0.00015499,0.0,0 STARLINK-3854,1 52648U 22052BC  24217.53621904  .00015499  00000-0  98955-3 0  9999,2 52648  53.2187 352.5093 0001405 114.6242 245.4896 15.08848161123624,6917.855,95.437,540.692,538.748,0.0
52648.0,STARLINK-3854,PAYLOAD,2024-08-04 14:27:32,15.08848877,0.0001404,53.2187,352.2121,114.9787,245.1351,0.0011861,0.00018644,0.0,0 STARLINK-3854,1 52648U 22052BC  24217.60245873  .00018644  00000-0  11861-2 0  9999,2 52648  53.2187 352.2121 0001404 114.9787 245.1351 15.08848877123255,6917.853,95.437,540.69,538.747,0.0
52648.0,STARLINK-3854,PAYLOAD,2024-08-04 16:02:55,15.08851846,0.0001071,53.2186,351.915,88.143,271.9685,0.0014462,0.00022811,0.0,0 STARLINK-3854,1 52648U 22052BC  24217.66869919  .00022811  00000-0  14462-2 0  9999,2 52648  53.2186 351.9150 0001071  88.1430 271.9685 15.08851846123267,6917.844,95.437,540.45,538.968,0.0
52648.0,STARLINK-3854,PAYLOAD,2024-08-05 01:35:13,15.08905735,0.0001027,53.218,350.1287,75.3519,284.7587,0.0031929,0.00050987,0.0,0 STARLINK-3854,1 52648U 22052BC  24218.06612682  .00050987  00000-0  31929-2 0  9999,2 52648  53.2180 350.1287 0001027  75.3519 284.7587 15.08905735123709,6917.679,95.433,540.255,538.834,0.0
52648.0,STARLINK-3854,PAYLOAD,2024-08-05 12:42:56,15.08848122,0.0004317,53.2181,348.0501,146.8736,213.2527,0.00089841,0.00014044,0.0,0 STARLINK-3854,1 52648U 22052BC  24218.52981693  .00014044  00000-0  89841-3 0  9992,2 52648  53.2181 348.0501 0004317 146.8736 213.2527 15.08848122123779,6917.856,95.437,542.707,536.734,0.0
52648.0,STARLINK-3854,PAYLOAD,2024-08-05 15:53:43,15.08811138,0.0001591,53.2184,347.4593,103.0983,257.0187,0.0010344,0.000162,0.0,0 STARLINK-3854,1 52648U 22052BC  24218.66230618  .00016200  00000-0  10344-2 0  9998,2 52648  53.2184 347.4593 0001591 103.0983 257.0187 15.08811138123793,6917.969,95.439,540.934,538.733,0.0
52648.0,STARLINK-3854,PAYLOAD,2024-08-06 14:09:07,15.08831142,0.0001924,53.2181,343.2964,96.6526,263.4685,0.00056415,8.7e-05,0.0,0 STARLINK-3854,1 52648U 22052BC  24219.58967534  .00008700  00000-0  56415-3 0  9990,2 52648  53.2181 343.2964 0001924  96.6526 263.4685 15.08831142123551,6917.907,95.438,541.103,538.441,0.0
